{
  "norad_id": 37930,
  "name": "CHUANGXIN 1-03 (CX-1-03)",
  "history": [
    {
      "epoch": "2026-03-28T22:50:08.559744Z",
      "apogee_km": 800.6514657135995,
      "perigee_km": 779.3378863507196,
      "latitude_deg": 79.97511784934655,
      "longitude_deg": -122.89467386259541,
      "height_km": 802.9964698694622,
      "semi_major_axis_km": 7168.13167603216,
      "eccentricity": 0.00148669,
      "inclination_deg": 98.7054,
      "raan_deg": 105.4997,
      "arg_perigee_deg": 356.5451,
      "mean_anomaly_deg": 88.195,
      "mean_motion_rev_day": 14.30519559
    },
    {
      "epoch": "2026-03-29T03:53:00.795264Z",
      "apogee_km": 800.6389585364068,
      "perigee_km": 779.3467456237877,
      "latitude_deg": 80.97846749941606,
      "longitude_deg": 147.2913079268374,
      "height_km": 803.6644989858868,
      "semi_major_axis_km": 7168.1298520800965,
      "eccentricity": 0.0014852,
      "inclination_deg": 98.7054,
      "raan_deg": 105.7104,
      "arg_perigee_deg": 355.9322,
      "mean_anomaly_deg": 91.3492,
      "mean_motion_rev_day": 14.30520105
    },
    {
      "epoch": "2026-03-30T05:04:36.335424Z",
      "apogee_km": 800.5938369926344,
      "perigee_km": 779.3905108961071,
      "latitude_deg": 81.33576908952136,
      "longitude_deg": 111.136473132316,
      "height_km": 804.7966637591703,
      "semi_major_axis_km": 7168.12917394437,
      "eccentricity": 0.001479,
      "inclination_deg": 98.7052,
      "raan_deg": 106.7608,
      "arg_perigee_deg": 352.7657,
      "mean_anomaly_deg": 97.3485,
      "mean_motion_rev_day": 14.30520308
    },
    {
      "epoch": "2026-03-30T06:55:59.035872Z",
      "apogee_km": 800.6007227891778,
      "perigee_km": 779.3852085298158,
      "latitude_deg": 50.94565938378477,
      "longitude_deg": 5.978812735608604,
      "height_km": 805.7398028085062,
      "semi_major_axis_km": 7168.1299656594965,
      "eccentricity": 0.00147985,
      "inclination_deg": 98.7052,
      "raan_deg": 106.8382,
      "arg_perigee_deg": 352.5347,
      "mean_anomaly_deg": 135.6746,
      "mean_motion_rev_day": 14.30520071
    },
    {
      "epoch": "2026-03-30T13:34:46.672608Z",
      "apogee_km": 800.5949893653442,
      "perigee_km": 779.3847886258818,
      "latitude_deg": 64.88065903161166,
      "longitude_deg": -85.57918285476002,
      "height_km": 806.7579289571328,
      "semi_major_axis_km": 7168.126888995613,
      "eccentricity": 0.00147948,
      "inclination_deg": 98.705,
      "raan_deg": 107.1153,
      "arg_perigee_deg": 351.7638,
      "mean_anomaly_deg": 121.8431,
      "mean_motion_rev_day": 14.30520992
    }
  ]
}